NORAD_CAT_ID,OBJECT_NAME,OBJECT_TYPE,EPOCH,MEAN_MOTION,ECCENTRICITY,INCLINATION,RA_OF_ASC_NODE,ARG_OF_PERICENTER,MEAN_ANOMALY,BSTAR,MEAN_MOTION_DOT,MEAN_MOTION_DDOT,TLE_LINE0,TLE_LINE1,TLE_LINE2,SEMIMAJOR_AXIS,PERIOD,APOGEE,PERIGEE,DECAYED
52358.0,STARLINK-3837,PAYLOAD,2024-08-04 14:40:47,15.08856168,0.0001734,53.2155,292.1741,82.1098,278.0091,0.0016956,0.00026813,0.0,0 STARLINK-3837,1 52358U 22045AD  24217.61165673  .00026813  00000-0  16956-2 0  9996,2 52358  53.2155 292.1741 0001734  82.1098 278.0091 15.08856168127910,6917.831,95.437,540.896,538.496,0.0
52358.0,STARLINK-3837,PAYLOAD,2024-08-04 22:37:42,15.08882065,0.000183,53.2149,290.6867,83.8026,276.3174,0.0023794,0.00037828,0.0,0 STARLINK-3837,1 52358U 22045AD  24217.94285121  .00037828  00000-0  23794-2 0  9999,2 52358  53.2149 290.6867 0001830  83.8026 276.3174 15.08882065127964,6917.752,95.435,540.883,538.351,0.0
52358.0,STARLINK-3837,PAYLOAD,2024-08-05 11:20:47,15.08840346,0.0001598,53.2161,288.3061,94.1282,265.9893,3.3009e-05,2.37e-06,0.0,0 STARLINK-3837,1 52358U 22045AD  24218.47277350  .00000237  00000-0  33009-4 0  9999,2 52358  53.2161 288.3061 0001598  94.1282 265.9893 15.08840346128046,6917.879,95.438,540.85,538.639,0.0
52358.0,STARLINK-3837,PAYLOAD,2024-08-06 04:50:02,15.08831823,0.0001596,53.2153,285.0371,93.6317,266.4858,0.00024369,3.592e-05,0.0,0 STARLINK-3837,1 52358U 22045AD  24219.20141962  .00003592  00000-0  24369-3 0  9995,2 52358  53.2153 285.0371 0001596  93.6317 266.4858 15.08831823128155,6917.905,95.438,540.874,538.666,0.0
52358.0,STARLINK-3837,PAYLOAD,2024-08-06 11:11:35,15.08818837,0.0001638,53.2169,283.8452,96.7155,263.4023,-0.00037178,-6.197e-05,0.0,0 STARLINK-3837,1 52358U 22045AD  24219.46638543 -.00006197  00000-0 -37178-3 0  9997,2 52358  53.2169 283.8452 0001638  96.7155 263.4023 15.08818837128194,6917.945,95.439,540.943,538.677,0.0
52358.0,STARLINK-3837,PAYLOAD,2024-08-07 11:02:22,15.08839257,0.0001383,53.2154,279.3811,94.3389,265.7761,0.00033153,4.992e-05,0.0,0 STARLINK-3837,1 52358U 22045AD  24220.45998701  .00004992  00000-0  33153-3 0  9991,2 52358  53.2154 279.3811 0001383  94.3389 265.7761 15.08839257128347,6917.883,95.438,540.704,538.791,0.0
52358.0,STARLINK-3837,PAYLOAD,2024-08-08 10:53:09,15.08852424,0.0001373,53.2149,274.9223,87.8272,272.2877,0.00042686,6.514e-05,0.0,0 STARLINK-3837,1 52358U 22045AD  24221.45358346  .00006514  00000-0  42686-3 0  9990,2 52358  53.2149 274.9223 0001373  87.8272 272.2877 15.08852424128494,6917.842,95.437,540.657,538.758,0.0
52358.0,STARLINK-3837,PAYLOAD,2024-08-09 12:19:19,15.08840962,0.0001489,53.2152,270.1646,95.9727,264.1434,-5.4547e-05,-1.156e-05,0.0,0 STARLINK-3837,1 52358U 22045AD  24222.51342201 -.00001156  00000-0 -54547-4 0  9990,2 52358  53.2152 270.1646 0001489  95.9727 264.1434 15.08840962128659,6917.877,95.437,540.773,538.712,0.0
52358.0,STARLINK-3837,PAYLOAD,2024-08-10 12:10:07,15.08833153,0.0001567,53.2153,265.7037,96.675,263.4421,-8.4705e-05,-1.636e-05,0.0,0 STARLINK-3837,1 52358U 22045AD  24223.50702653 -.00001636  00000-0 -84705-4 0  9993,2 52358  53.2153 265.7037 0001567  96.6750 263.4421 15.08833153128804,6917.901,95.438,540.85,538.682,0.0
52358.0,STARLINK-3837,PAYLOAD,2024-08-11 10:25:30,15.08843301,0.0001511,53.2143,261.5433,92.6172,267.4993,0.00022814,3.345e-05,0.0,0 STARLINK-3837,1 52358U 22045AD  24224.43438565  .00003345  00000-0  22814-3 0  9993,2 52358  53.2143 261.5433 0001511  92.6172 267.4993 15.08843301128949,6917.87,95.437,540.781,538.69,0.0
52358.0,STARLINK-3837,PAYLOAD,2024-08-11 19:57:49,15.08858463,0.0001716,53.2159,259.7582,99.1664,260.9522,0.00050011,7.684e-05,0.0,0 STARLINK-3837,1 52358U 22045AD  24224.83182036  .00007684  00000-0  50011-3 0  9996,2 52358  53.2159 259.7582 0001716  99.1664 260.9522 15.08858463129004,6917.824,95.436,540.876,538.502,0.0
52358.0,STARLINK-3837,PAYLOAD,2024-08-12 02:19:22,15.08839604,0.0001531,53.2146,258.5697,99.6493,260.4672,-4.9066e-05,-1.069e-05,0.0,0 STARLINK-3837,1 52358U 22045AD  24225.09678336 -.00001069  00000-0 -49066-4 0  9990,2 52358  53.2146 258.5697 0001531  99.6493 260.4672 15.08839604129045,6917.882,95.438,540.806,538.687,0.0
52358.0,STARLINK-3837,PAYLOAD,2024-08-12 13:27:03,15.08869437,0.0001471,53.2154,256.4882,95.9973,264.1187,0.0007792,0.00012145,0.0,0 STARLINK-3837,1 52358U 22045AD  24225.56045463  .00012145  00000-0  77920-3 0  9995,2 52358  53.2154 256.4882 0001471  95.9973 264.1187 15.08869437129119,6917.79,95.436,540.673,538.638,0.0
52358.0,STARLINK-3837,PAYLOAD,2024-08-12 19:48:35,15.08860312,0.0001574,53.2167,255.2947,104.4972,255.6194,0.00047653,7.308e-05,0.0,0 STARLINK-3837,1 52358U 22045AD  24225.82541330  .00007308  00000-0  47653-3 0  9993,2 52358  53.2167 255.2947 0001574 104.4972 255.6194 15.08860312129151,6917.818,95.436,540.772,538.594,0.0
52358.0,STARLINK-3837,PAYLOAD,2024-08-13 05:20:55,15.08826496,0.0001614,53.2169,253.5132,97.5064,262.6111,-0.0004524,-7.478e-05,0.0,0 STARLINK-3837,1 52358U 22045AD  24226.22286205 -.00007478  00000-0 -45240-3 0  9995,2 52358  53.2169 253.5132 0001614  97.5064 262.6111 15.08826496129218,6917.922,95.438,540.903,538.67,0.0
52358.0,STARLINK-3837,PAYLOAD,2024-08-13 11:42:27,15.0882884,0.0001566,53.2157,252.3241,85.2347,274.8824,-0.00019,-3.31e-05,0.0,0 STARLINK-3837,1 52358U 22045AD  24226.48782263 -.00003310  00000-0 -19000-3 0  9994,2 52358  53.2157 252.3241 0001566  85.2347 274.8824 15.08828840129252,6917.915,95.438,540.863,538.696,0.0
52358.0,STARLINK-3837,PAYLOAD,2024-08-14 05:11:42,15.08839739,0.0001571,53.2155,249.0533,82.4375,277.6796,0.00090928,0.00014213,0.0,0 STARLINK-3837,1 52358U 22045AD  24227.21646917  .00014213  00000-0  90928-3 0  9991,2 52358  53.2155 249.0533 0001571  82.4375 277.6796 15.08839739129363,6917.881,95.438,540.833,538.659,0.0
52358.0,STARLINK-3837,PAYLOAD,2024-08-14 11:33:15,15.08838298,0.000156,53.2152,247.8654,80.085,280.0318,0.00058548,9.042e-05,0.0,0 STARLINK-3837,1 52358U 22045AD  24227.48143011  .00009042  00000-0  58548-3 0  9993,2 52358  53.2152 247.8654 0001560  80.0850 280.0318 15.08838298129402,6917.886,95.438,540.83,538.671,0.0
52358.0,STARLINK-3837,PAYLOAD,2024-08-14 17:54:48,15.088427,0.0001543,53.2152,246.6756,81.2822,278.8345,0.00048015,7.362e-05,0.0,0 STARLINK-3837,1 52358U 22045AD  24227.74638950  .00007362  00000-0  48015-3 0  9994,2 52358  53.2152 246.6756 0001543  81.2822 278.8345 15.08842700129447,6917.872,95.437,540.805,538.67,0.0
52358.0,STARLINK-3837,PAYLOAD,2024-08-15 05:02:30,15.08835715,0.0001604,53.2155,244.5943,83.7195,276.398,7.734e-05,9.43e-06,0.0,0 STARLINK-3837,1 52358U 22045AD  24228.21007177  .00000943  00000-0  77340-4 0  9990,2 52358  53.2155 244.5943 0001604  83.7195 276.3980 15.08835715129517,6917.893,95.438,540.868,538.649,0.0
52358.0,STARLINK-3837,PAYLOAD,2024-08-15 08:13:16,15.08835649,0.0001592,53.2155,243.9996,83.6766,276.4408,5.6274e-05,6.08e-06,0.0,0 STARLINK-3837,1 52358U 22045AD  24228.34255196  .00000608  00000-0  56274-4 0  9991,2 52358  53.2155 243.9996 0001592  83.6766 276.4408 15.08835649129531,6917.894,95.438,540.86,538.657,0.0
52358.0,STARLINK-3837,PAYLOAD,2024-08-15 17:45:35,15.08842309,0.0001599,53.2154,242.2157,84.901,275.2165,0.00022302,3.263e-05,0.0,0 STARLINK-3837,1 52358U 22045AD  24228.73999082  .00003263  00000-0  22302-3 0  9997,2 52358  53.2154 242.2157 0001599  84.9010 275.2165 15.08842309129598,6917.873,95.437,540.844,538.632,0.0
52358.0,STARLINK-3837,PAYLOAD,2024-08-16 06:28:40,15.08832122,0.0001597,53.2151,239.8379,88.5787,271.5388,-6.4353e-05,-1.312e-05,0.0,0 STARLINK-3837,1 52358U 22045AD  24229.26991441 -.00001312  00000-0 -64353-4 0  9995,2 52358  53.2151 239.8379 0001597  88.5787 271.5388 15.08832122129679,6917.904,95.438,540.874,538.665,0.0
52358.0,STARLINK-3837,PAYLOAD,2024-08-17 04:44:04,15.08840724,0.000164,53.2151,235.6794,106.8011,253.3161,7.4322e-05,8.95e-06,0.0,0 STARLINK-3837,1 52358U 22045AD  24230.19727156  .00000895  00000-0  74322-4 0  9999,2 52358  53.2151 235.6794 0001640 106.8011 253.3161 15.08840724129817,6917.878,95.438,540.878,538.609,0.0
52358.0,STARLINK-3837,PAYLOAD,2024-08-17 07:54:50,15.08844671,0.0001521,53.2142,235.0843,99.1603,260.9561,0.00017384,2.48e-05,0.0,0 STARLINK-3837,1 52358U 22045AD  24230.32975074  .00002480  00000-0  17384-3 0  9994,2 52358  53.2142 235.0843 0001521  99.1603 260.9561 15.08844671129830,6917.866,95.437,540.783,538.679,0.0
52358.0,STARLINK-3837,PAYLOAD,2024-08-18 09:21:00,15.08842084,0.0001356,53.2136,230.3239,106.3563,253.7579,-7.024e-05,-1.406e-05,0.0,0 STARLINK-3837,1 52358U 22045AD  24231.38958509 -.00001406  00000-0 -70240-4 0  9995,2 52358  53.2136 230.3239 0001356 106.3563 253.7579 15.08842084129994,6917.874,95.437,540.677,538.801,0.0
52358.0,STARLINK-3837,PAYLOAD,2024-08-19 06:01:02,15.0881174,0.0001675,53.2145,226.4532,78.0199,282.0981,-0.0004513,-7.458e-05,0.0,0 STARLINK-3837,1 52358U 22045AD  24232.25072803 -.00007458  00000-0 -45130-3 0  9998,2 52358  53.2145 226.4532 0001675  78.0199 282.0981 15.08811740130124,6917.967,95.439,540.991,538.673,0.0
52358.0,STARLINK-3837,PAYLOAD,2024-08-20 05:51:50,15.08826813,0.0001871,53.2168,221.9903,90.6145,269.5061,6.947e-05,8.17e-06,0.0,0 STARLINK-3837,1 52358U 22045AD  24233.24433031  .00000817  00000-0  69470-4 0  9996,2 52358  53.2168 221.9903 0001871  90.6145 269.5061 15.08826813130272,6917.921,95.438,541.08,538.491,0.0
52358.0,STARLINK-3837,PAYLOAD,2024-08-21 04:07:13,15.08849233,0.0001941,53.2148,217.8288,81.3341,278.7871,0.00049193,7.552e-05,0.0,0 STARLINK-3837,1 52358U 22045AD  24234.17168875  .00007552  00000-0  49193-3 0  9992,2 52358  53.2148 217.8288 0001941  81.3341 278.7871 15.08849233130411,6917.852,95.437,541.06,538.374,0.0
52358.0,STARLINK-3837,PAYLOAD,2024-08-21 08:53:22,15.08862225,0.0001951,53.2151,216.9372,80.1442,279.977,0.00061226,9.475e-05,0.0,0 STARLINK-3837,1 52358U 22045AD  24234.37040496  .00009475  00000-0  61226-3 0  9999,2 52358  53.2151 216.9372 0001951  80.1442 279.9770 15.08862225130449,6917.812,95.436,541.027,538.328,0.0
